GPS BIIR-5  (PRN 22)    
1 26407U 00040A   26277.20229534 -.00000015  00000+0  00000+0 0  9999
2 26407  54.8341 210.8364 0117201 304.2454 212.1215  2.00558425192135
GPS BIIR-8  (PRN 16)    
1 27663U 03005A   26277.82300736 -.00000024  00000+0  00000+0 0  9990
2 27663  54.8636 210.6170 0151364  53.8800 326.4690  2.00554529173518
GPS BIIR-11 (PRN 19)    
1 28190U 04009A   26277.11352288  .00000016  00000+0  00000+0 0  9992
2 28190  54.7470 271.2761 0118367 177.0571 205.6740  2.00572810165134
GPS BIIR-13 (PRN 02)    
1 28474U 04045A   26277.48841309 -.00000054  00000+0  00000+0 0  9997
2 28474  55.0652 320.4857 0173011 319.1979  37.4799  2.00560510160613
GPS BIIRM-1 (PRN 17)    
1 28874U 05038A   26277.12262648  .00000018  00000+0  00000+0 0  9997
2 28874  54.7977 268.7715 0128658 298.0547 119.9728  2.00558079154026
INMARSAT 4-F2 (SOUTHPA*)
1 28899U 05044A   26277.27614578 -.00000271  00000+0  00000+0 0  9992
2 28899   5.2378  43.7236 0002794 164.4836  47.6994  1.00272379 76612
GPS BIIRM-2 (PRN 31)    
1 29486U 06042A   26277.42289278  .00000013  00000+0  00000+0 0  9999
2 29486  54.7176 146.9988 0109307  57.8289 117.5996  2.00564385146580
GPS BIIRM-3 (PRN 12)    
1 29601U 06052A   26277.60833478 -.00000021  00000+0  00000+0 0  9996
2 29601  54.9191 209.6729 0086073  91.1813 269.8037  2.00564039145601
GPS BIIRM-4 (PRN 15)    
1 32260U 07047A   26277.91659083  .00000021  00000+0  00000+0 0  9997
2 32260  54.1840  75.5469 0168291  89.7939 272.1568  2.00575036139018
COSMOS 2433 (720)       
1 32275U 07052A   26277.72192199 -.00000011  00000+0  00000+0 0  9998
2 32275  65.5095 312.2418 0005953 232.1989 127.8118  2.13104081147390
GPS BIIRM-5 (PRN 29)    
1 32384U 07062A   26277.49973854  .00000014  00000+0  00000+0 0  9991
2 32384  54.9524 269.7487 0035860 170.3173  18.9798  2.00565889137701
COSMOS 2434 (721)       
1 32393U 07065A   26277.08697407 -.00000014  00000+0  00000+0 0  9997
2 32393  64.3178 188.2456 0002290  52.7500  69.4168  2.13101237146091
COSMOS 2436 (723)       
1 32395U 07065C   26277.43103725 -.00000018  00000+0  00000+0 0  9997
2 32395  64.3265 188.3075 0017531   2.4111 155.5265  2.13099889146052
GPS BIIRM-6 (PRN 07)    
1 32711U 08012A   26277.82576007  .00000017  00000+0  00000+0 0  9990
2 32711  54.5067 145.5422 0211654 248.7017 109.1066  2.00553320135950
GPS BIIRM-8 (PRN 05)    
1 35752U 09043A   26277.97596646 -.00000084  00000+0  00000+0 0  9995
2 35752  56.2728  23.1489 0050739  86.4901  33.6942  2.00575661125561
COSMOS 2456 (730)       
1 36111U 09070A   26275.77866545  .00000032  00000+0  00000+0 0  9991
2 36111  65.0806  67.3066 0001327 338.6413  18.5871  2.13103500130715
COSMOS 2457 (733)       
1 36112U 09070B   26277.91242973  .00000031  00000+0  00000+0 0  9992
2 36112  65.0677  67.0757 0005921 136.1573 184.4275  2.13100735130761
COSMOS 2460 (732)       
1 36402U 10007C   26265.40205623 -.00000008  00000+0  00000+0 0  9993
2 36402  65.3592 311.1726 0002578 222.5647 222.5420  2.13101986128805
GPS BIIF-1  (PRN 25)    
1 36585U 10022A   26277.12451416 -.00000018  00000+0  00000+0 0  9998
2 36585  54.2552 204.1764 0116785  56.0456 293.7306  2.00610892119773
BEIDOU-2 IGSO-1 (C06)   
1 36828U 10036A   26256.66970756 -.00000130  00000+0  00000+0 0  9997
2 36828  54.3037 162.1610 0058541 217.4777 320.7749  1.00289463 58981
BEIDOU-2 G4 (C04)       
1 37210U 10057A   26277.84961392 -.00000125  00000+0  00000+0 0  9999
2 37210   3.9139  68.1439 0009112 181.7840 229.4877  1.00272582 58394
BEIDOU-2 IGSO-2 (C07)   
1 37256U 10068A   26276.79648902 -.00000172  00000+0  00000+0 0  9995
2 37256  47.3553 270.4706 0056823 216.6104 276.3377  1.00246455 57882
BEIDOU-2 IGSO-3 (C08)   
1 37384U 11013A   26277.87093788 -.00000178  00000+0  00000+0 0  9990
2 37384  62.5690  39.1286 0034877 185.1290 209.8488  1.00286579 56760
GSAT-8 (GAGAN/PRN 127)  
1 37605U 11022A   26277.94443897  .00000070  00000+0  00000+0 0  9994
2 37605   2.4079  80.3401 0007273 163.5956 164.7977  1.00270901 54319
BEIDOU-2 IGSO-4 (C09)   
1 37763U 11038A   26277.67178613 -.00000091  00000+0  00000+0 0  9991
2 37763  54.6010 164.6984 0160756 230.7855 313.4326  1.00263797 55745
GSAT0101 (GALILEO-PFM)  
1 37846U 11060A   26277.53982311 -.00000083  00000+0  00000+0 0  9992
2 37846  56.9495 338.7940 0000833 302.6529  57.3994  1.70475540 92981
GSAT0102 (GALILEO-FM2)  
1 37847U 11060B   26277.47892304 -.00000083  00000+0  00000+0 0  9998
2 37847  56.9502 338.7961 0002520 309.1054  59.3021  1.70475874 92998
COSMOS 2476 (744)       
1 37867U 11064A   26277.77464690  .00000037  00000+0  00000+0 0  9998
2 37867  65.3389  69.1761 0023009 230.5477 126.2457  2.13103540116092
COSMOS 2477 (745)       
1 37868U 11064B   26277.58445642  .00000037  00000+0  00000+0 0  9994
2 37868  65.3450  69.2629 0019893 230.4989 160.3890  2.13102598116091
COSMOS 2475 (743)       
1 37869U 11064C   26267.52397483  .00000043  00000+0  00000+0 0  9994
2 37869  65.3462  69.6239 0024905 245.5374 301.9912  2.13101751115885
BEIDOU-2 IGSO-5 (C10)   
1 37948U 11073A   26275.87592986 -.00000134  00000+0  00000+0 0  9996
2 37948  47.4897 270.1981 0116313 224.3445 288.3052  1.00273327 54214
LUCH 5A (SDCM/PRN 140)  
1 37951U 11074B   26277.73346691 -.00000058  00000+0  00000+0 0  9993
2 37951   9.0263  72.1735 0004560 141.0785 231.3211  1.00274350 54153
BEIDOU-2 G5 (C05)       
1 38091U 12008A   26278.00687376  .00000043  00000+0  00000+0 0  9999
2 38091   3.8422  68.8783 0007807 232.9609 133.0474  1.00274245 53471
BEIDOU-2 M3 (C11)       
1 38250U 12018A   26277.19108839 -.00000018  00000+0  00000+0 0  9991
2 38250  55.6610 301.1917 0023632 273.9637  85.8134  1.86229837 97975
BEIDOU-2 M4 (C12)       
1 38251U 12018B   26277.66051332 -.00000018  00000+0  00000+0 0  9999
2 38251  55.5603 300.3811 0014904 274.4294  85.4468  1.86229480 97989
SES-5 (EGNOS/PRN 136)   
1 38652U 12036A   26277.89014304  .00000000  00000+0  00000+0 0  9997
2 38652   0.0126 345.9669 0002272 211.9320 141.1103  1.00270693 45556
BEIDOU-2 M6 (C14)       
1 38775U 12050B   26277.36966453 -.00000006  00000+0  00000+0 0  9999
2 38775  56.6453  59.2917 0010528   2.3461 357.6624  1.86230722 95341
GSAT-10 (GAGAN/PRN 128) 
1 38779U 12051B   26276.90782138 -.00000178  00000+0  00000+0 0  9999
2 38779   0.0182 142.6863 0004116 339.9412 299.8404  1.00270447 51186
GPS BIIF-3  (PRN 24)    
1 38833U 12053A   26277.00641053  .00000020  00000+0  00000+0 0  9999
2 38833  53.6011 139.1369 0186758  67.8340 294.2224  2.00557204101628
GSAT0103 (GALILEO-FM3)  
1 38857U 12055A   26274.06143115  .00000044  00000+0  00000+0 0  9992
2 38857  55.8745  98.6386 0001492 306.3470  53.6908  1.70473312 86818
BEIDOU-2 G6 (C02)       
1 38953U 12059A   26277.97715678 -.00000189  00000+0  00000+0 0  9996
2 38953   4.6935  72.2587 0006432 318.0467  59.1935  1.00273073 51014
LUCH 5B (SDCM/PRN 125)  
1 38977U 12061A   26277.67214730 -.00000147  00000+0  00000+0 0  9999
2 38977  10.7162  48.7655 0006811 173.7289  16.5356  1.00271103 50704
COSMOS 2485 (747)       
1 39155U 13019A   26276.77806360  .00000040  00000+0  00000+0 0  9999
2 39155  65.4872  69.9644 0023556 225.9607 133.8588  2.13102890104598
GPS BIIF-4  (PRN 27)    
1 39166U 13023A   26276.87330857  .00000020  00000+0  00000+0 0  9998
2 39166  54.4281 264.5378 0143134  51.1975 310.0740  2.00563013 98068
IRNSS-1A                
1 39199U 13034A   26274.47906317  .00000078  00000+0  00000+0 0  9993
2 39199  35.9548  62.3510 0021227 181.6495 353.8384  1.00269028 48433
GPS BIIF-5  (PRN 30)    
1 39533U 14008A   26277.87176352  .00000017  00000+0  00000+0 0  9995
2 39533  53.6660 144.8421 0083569 231.5387 127.7903  2.00566856 91888
ASTRA 5B (EGNOS/PRN 123)
1 39617U 14011B   26277.60870700  .00000122  00000+0  00000+0 0  9998
2 39617   0.0772 304.3384 0003699 271.8608  39.7438  1.00272699 45760
COSMOS 2492 (754)       
1 39620U 14012A   26277.67551124 -.00000007  00000+0  00000+0 0  9999
2 39620  65.2287 310.2086 0012459 306.2322  53.7159  2.13103179 97576
IRNSS-1B                
1 39635U 14017A   26277.47453885  .00000092  00000+0  00000+0 0  9996
2 39635  29.1662 238.5273 0019437 192.1949 168.4536  1.00278541 45890
LUCH 5V (SDCM/PRN 141)  
1 39727U 14023A   26277.90799646 -.00000281  00000+0  00000+0 0  9992
2 39727   5.4018  68.5330 0003065 161.5950 205.1266  1.00272296 45464
GPS BIIF-6  (PRN 06)    
1 39741U 14026A   26277.65374367 -.00000064  00000+0  00000+0 0  9991
2 39741  56.4369 327.2502 0040072 323.9719  35.8203  2.00553003 90735
COSMOS 2500 (755)       
1 40001U 14032A   26277.37514398 -.00000007  00000+0  00000+0 0  9995
2 40001  65.1638 309.9570 0009548 208.4541 151.5563  2.13101357 95787
GPS BIIF-7  (PRN 09)    
1 40105U 14045A   26276.74485430  .00000035  00000+0  00000+0 0  9998
2 40105  55.4323  84.1416 0036636 120.6655 239.7270  2.00565281 88259
GSAT0201 (GALILEO 5)    
1 40128U 14050A   26261.66135895  .00000005  00000+0  00000+0 0  9998
2 40128  48.7780 269.5934 1687123 183.0003 175.8597  1.85519745 80052
GSAT0202 (GALILEO 6)    
1 40129U 14050B   26277.00810635  .00000004  00000+0  00000+0 0  9995
2 40129  48.7792 268.0487 1690748 184.2849 174.0704  1.85520134 82508
IRNSS-1C                
1 40269U 14061A   26277.97570503 -.00000171  00000+0  00000+0 0  9991
2 40269   6.7919  86.8185 0019439  10.7828 350.1868  1.00267676 43792
GPS BIIF-8  (PRN 03)    
1 40294U 14068A   26277.61391621 -.00000076  00000+0  00000+0 0  9993
2 40294  57.0574  26.7494 0066604  73.9510 286.7917  2.00558085 87400
COSMOS 2501 (702K)      
1 40315U 14075A   26277.16889824 -.00000015  00000+0  00000+0 0  9995
2 40315  63.6156 186.6023 0021797 208.8439 151.0734  2.13101232 92173
GPS BIIF-9  (PRN 26)    
1 40534U 15013A   26277.74756686 -.00000029  00000+0  00000+0 0  9999
2 40534  53.1533 199.6500 0114072  41.6205 319.2527  2.00569467 84023
GSAT0203 (GALILEO 7)    
1 40544U 15017A   26273.79769036 -.00000072  00000+0  00000+0 0  9996
2 40544  56.7433 338.7158 0005862 259.5183 100.4835  1.70476060 71006
GSAT0204 (GALILEO 8)    
1 40545U 15017B   26258.80260670 -.00000102  00000+0  00000+0 0  9996
2 40545  56.7566 339.1450 0004699 240.9831 119.0222  1.70476021 33792
BEIDOU-3S IGSO-1S (C31) 
1 40549U 15019A   26277.00113421 -.00000163  00000+0  00000+0 0  9993
2 40549  48.9898 294.1397 0039026 201.4028 334.2533  1.00283571 42165
GPS BIIF-10 (PRN 08)    
1 40730U 15033A   26277.91353325  .00000007  00000+0  00000+0 0  9996
2 40730  53.9060 262.5546 0118290  30.7739 329.9113  2.00550303 82195
BEIDOU-3S M2S (C58)     
1 40748U 15037A   26277.32411086 -.00000016  00000+0  00000+0 0  9994
2 40748  54.7717 298.2785 0012203 262.9342  96.9701  1.86232013 76150
BEIDOU-3S M1S (C57)     
1 40749U 15037B   26276.98128259 -.00000015  00000+0  00000+0 0  9992
2 40749  54.7685 298.2761 0001880  31.8188 328.2356  1.86254814 76159
GSAT0206 (GALILEO 10)   
1 40890U 15045B   26259.96432677  .00000017  00000+0  00000+0 0  9990
2 40890  54.9240 219.0714 0002624 353.2075   6.7586  1.70473245 68605
BEIDOU-3S IGSO-2S (C56) 
1 40938U 15053A   26277.96243370 -.00000132  00000+0  00000+0 0  9991
2 40938  49.0606 257.4662 0065450 192.5227   6.4956  1.00278990 40450
GPS BIIF-11 (PRN 10)    
1 41019U 15062A   26277.46516578 -.00000075  00000+0  00000+0 0  9996
2 41019  57.0280  26.6113 0117027 231.3752 127.5862  2.00566740 80020
GSAT-15 (GAGAN/PRN 139) 
1 41028U 15065A   26277.90773646 -.00000274  00000+0  00000+0 0  9990
2 41028   0.0282  96.1964 0002063  98.3637 239.3410  1.00270151 39899
GSAT0209 (GALILEO 12)   
1 41174U 15079A   26275.97072623  .00000042  00000+0  00000+0 0  9991
2 41174  55.8972  98.3038 0003264  23.0658 336.9981  1.70473900 66614
GSAT0208 (GALILEO 11)   
1 41175U 15079B   26276.77772798  .00000043  00000+0  00000+0 0  9992
2 41175  55.8963  98.2784 0003033  33.4110 326.6588  1.70473745 67048
IRNSS-1E                
1 41241U 16003A   26277.79325822 -.00000294  00000+0  00000+0 0  9998
2 41241  33.4737  58.1685 0022495 180.5723 172.0814  1.00277875 39172
GPS BIIF-12 (PRN 32)    
1 41328U 16007A   26277.55317662  .00000039  00000+0  00000+0 0  9991
2 41328  55.6001  85.1247 0098266 247.3221 111.6682  2.00571428 78038
COSMOS 2514 (751)       
1 41330U 16008A   26277.62277327 -.00000006  00000+0  00000+0 0  9991
2 41330  64.9520 309.2432 0013760 212.8749 147.1015  2.13102590 82958
BEIDOU-2 IGSO-6 (C13)   
1 41434U 16021A   26277.86443669 -.00000162  00000+0  00000+0 0  9994
2 41434  60.3850  36.9579 0062541 228.8830 155.5705  1.00277655 38583
IRNSS-1G                
1 41469U 16027A   26277.89705608 -.00000347  00000+0  00000+0 0  9990
2 41469   5.4627  94.9160 0002336  48.1390 323.0331  1.00271958 38287
GSAT0211 (GALILEO 14)   
1 41549U 16030A   26277.48768559 -.00000010  00000+0  00000+0 0  9999
2 41549  55.0685 218.6911 0003826 344.0737  15.8951  1.70472869 64530
GSAT0210 (GALILEO 13)   
1 41550U 16030B   26271.29228813  .00000016  00000+0  00000+0 0  9993
2 41550  55.0701 218.8591 0003477 255.7678 104.1641  1.70473473 64429
BEIDOU-2 G7 (C03)       
1 41586U 16037A   26277.91111648 -.00000368  00000+0  00000+0 0  9992
2 41586   1.9869  69.6640 0004777 348.0521  34.4451  1.00274263  7999
EUTELSAT 117 WEST B (W*)
1 41589U 16038B   26277.65221388 -.00000027  00000+0  00000+0 0  9992
2 41589   0.0127  44.7224 0000226  59.7812  26.6575  1.00273894 37762
GSAT0207 (GALILEO 15)   
1 41859U 16069A   26262.77251084  .00000026  00000+0  00000+0 0  9997
2 41859  55.5593  98.4673 0002818   1.3542 358.7215  1.70473989 61019
GSAT0212 (GALILEO 16)   
1 41860U 16069B   26277.29041438  .00000043  00000+0  00000+0 0  9991
2 41860  55.5686  98.0608 0003716  45.9218 314.1603  1.70473962 61513
GSAT0213 (GALILEO 17)   
1 41861U 16069C   26258.30017772  .00000003  00000+0  00000+0 0  9993
2 41861  55.5571  98.5941 0002003 331.4312  28.6313  1.70474479 61056
GSAT0214 (GALILEO 18)   
1 41862U 16069D   26264.89902317  .00000042  00000+0  00000+0 0  9996
2 41862  55.5585  98.4041 0001465   3.2419 356.8418  1.70474219 61295
SES-15 (WAAS/PRN 133)   
1 42709U 17026A   26277.50721985  .00000045  00000+0  00000+0 0  9996
2 42709   0.0361 334.2331 0000494 252.8230 199.5975  1.00268003  8522
QZS-2 (QZSS/PRN 194)    
1 42738U 17028A   26277.77265355 -.00000204  00000+0  00000+0 0  9991
2 42738  39.2699 241.5423 0747326 270.7191 279.7213  1.00255404  8720
QZS-3 (QZSS/PRN 199)    
1 42917U 17048A   26277.92525225 -.00000364  00000+0  00000+0 0  9991
2 42917   0.0540 200.2155 0002099  10.2556 263.2709  1.00274877 33357
COSMOS 2522 (752)       
1 42939U 17055A   26276.99103807 -.00000013  00000+0  00000+0 0  9998
2 42939  64.0783 188.1841 0008669 233.4183 126.5379  2.13101897 70294
QZS-4 (QZSS/PRN 195)    
1 42965U 17062A   26277.57283139 -.00000318  00000+0  00000+0 0  9995
2 42965  40.0356 342.0863 0750138 270.1211 107.6620  1.00268033 32909
BEIDOU-3 M1 (C19)       
1 43001U 17069A   26277.67191566 -.00000006  00000+0  00000+0 0  9991
2 43001  56.7927  59.4858 0007235 318.5361  41.4124  1.86230655 60647
BEIDOU-3 M2 (C20)       
1 43002U 17069B   26277.07396692 -.00000004  00000+0  00000+0 0  9991
2 43002  56.7913  59.5414 0005694 359.5002   0.5031  1.86230543 60623
GSAT0215 (GALILEO 19)   
1 43055U 17079A   26277.11977852 -.00000006  00000+0  00000+0 0  9990
2 43055  55.0466 218.5116 0002811 290.3289  69.6237  1.70473673 54846
GSAT0216 (GALILEO 20)   
1 43056U 17079B   26261.57308714  .00000017  00000+0  00000+0 0  9990
2 43056  55.0525 218.9384 0004502 291.2688  68.6566  1.70474060 54593
GSAT0217 (GALILEO 21)   
1 43057U 17079C   26265.89999000  .00000011  00000+0  00000+0 0  9998
2 43057  55.0493 218.8172 0003908 307.6838  52.2454  1.70473918 54653
GSAT0218 (GALILEO 22)   
1 43058U 17079D   26276.67860965 -.00000002  00000+0  00000+0 0  9995
2 43058  55.0455 218.5190 0004531 289.9808  69.9550  1.70473731 54869
BEIDOU-3 M7 (C27)       
1 43107U 18003A   26277.35342292 -.00000018  00000+0  00000+0 0  9999
2 43107  54.2279 298.4979 0002833 103.2183 256.8563  1.86227960 59389
BEIDOU-3 M8 (C28)       
1 43108U 18003B   26277.29648979 -.00000018  00000+0  00000+0 0  9994
2 43108  54.2209 298.4809 0004529 265.1049  94.8863  1.86230888 59395
BEIDOU-3 M4 (C22)       
1 43207U 18018A   26273.98152258 -.00000006  00000+0  00000+0 0  9999
2 43207  56.7484  59.6674 0005388  43.6939 316.3492  1.86230659 58716
BEIDOU-3 M3 (C21)       
1 43208U 18018B   26277.80672257 -.00000006  00000+0  00000+0 0  9991
2 43208  56.7513  59.5456 0005179 341.5319  18.4526  1.86230694 58781
BEIDOU-3 M9 (C29)       
1 43245U 18029A   26276.95140205 -.00000013  00000+0  00000+0 0  9990
2 43245  54.0938 296.1333 0001825 241.4679 118.5536  1.86227926 57920
BEIDOU-3 M10 (C30)      
1 43246U 18029B   26276.88520735 -.00000013  00000+0  00000+0 0  9993
2 43246  54.0911 296.1627 0002917  11.3795 348.6670  1.86229059 57906
IRNSS-1I                
1 43286U 18035A   26273.82550137  .00000090  00000+0  00000+0 0  9998
2 43286  28.9997  72.5521 0021176 177.3911 111.9514  1.00269041 31130
COSMOS 2527 (756)       
1 43508U 18053A   26277.42261123  .00000041  00000+0  00000+0 0  9995
2 43508  65.6449  70.2680 0007508 213.8622 146.1038  2.13101924 64605
BEIDOU-2 IGSO-7 (C16)   
1 43539U 18057A   26277.60321903 -.00000143  00000+0  00000+0 0  9990
2 43539  55.2111 162.1213 0108024 236.3331 304.5584  1.00270574 30225
GSAT0221 (GALILEO 25)   
1 43564U 18060A   26265.43785046 -.00000078  00000+0  00000+0 0  9999
2 43564  57.1298 339.1540 0004899 270.7276  89.2757  1.70476363 50811
GSAT0222 (GALILEO 26)   
1 43565U 18060B   26276.21615640 -.00000079  00000+0  00000+0 0  9991
2 43565  57.1287 338.8658 0005461 248.8761 111.1275  1.70475516 51053
GSAT0219 (GALILEO 23)   
1 43566U 18060C   26277.02348734 -.00000082  00000+0  00000+0 0  9993
2 43566  57.1277 338.8452 0004360 274.9994  85.0117  1.70476045 51041
GSAT0220 (GALILEO 24)   
1 43567U 18060D   26259.06046683 -.00000101  00000+0  00000+0 0  9998
2 43567  57.1352 339.3320 0003721 269.4250  90.5848  1.70476412 50724
BEIDOU-3 M5 (C23)       
1 43581U 18062A   26277.10920758 -.00000020  00000+0  00000+0 0  9995
2 43581  54.0804 178.6030 0003444 321.6719  38.3516  1.86228545 55662
BEIDOU-3 M6 (C24)       
1 43582U 18062B   26277.51007412 -.00000023  00000+0  00000+0 0  9997
2 43582  54.0801 178.5784 0007024  36.7536 323.3415  1.86227812 55676
BEIDOU-3 M12 (C26)      
1 43602U 18067A   26277.44868817 -.00000022  00000+0  00000+0 0  9990
2 43602  54.1764 177.3371 0009142  39.5285 320.5874  1.86227438 55157
BEIDOU-3 M11 (C25)      
1 43603U 18067B   26277.58403816 -.00000023  00000+0  00000+0 0  9991
2 43603  54.1739 177.2959 0005496  30.5152 329.5657  1.86226983 55188
BEIDOU-3 M13 (C32)      
1 43622U 18072A   26277.00079072 -.00000005  00000+0  00000+0 0  9998
2 43622  56.7246  59.0764 0004041 320.9701  39.0045  1.86230790 54681
BEIDOU-3 M14 (C33)      
1 43623U 18072B   26277.40316277 -.00000006  00000+0  00000+0 0  9995
2 43623  56.7268  59.0576 0003215  22.6047 337.4130  1.86230777 54683
BEIDOU-3 M16 (C35)      
1 43647U 18078A   26277.01999550 -.00000014  00000+0  00000+0 0  9994
2 43647  53.9895 296.1588 0006206  29.3108 330.7639  1.86232222 54188
BEIDOU-3 M15 (C34)      
1 43648U 18078B   26277.15113850 -.00000014  00000+0  00000+0 0  9991
2 43648  53.9851 296.1542 0002761  31.0937 328.9626  1.86227305 54207
BEIDOU-3 G1 (C59)       
1 43683U 18085A   26277.86789377 -.00000123  00000+0  00000+0 0  9990
2 43683   2.6653  94.2579 0005080  28.7561   3.0511  1.00270658 29163
COSMOS 2529 (757)       
1 43687U 18086A   26277.04930760 -.00000013  00000+0  00000+0 0  9997
2 43687  64.2947 188.9218 0009600 253.5567 106.3725  2.13101831 61604
BEIDOU-3 M17 (C36)      
1 43706U 18093A   26277.57389179 -.00000024  00000+0  00000+0 0  9999
2 43706  54.1640 178.5875 0007831 306.7504 228.3256  1.86228168 53577
BEIDOU-3 M18 (C37)      
1 43707U 18093B   26276.10324881 -.00000009  00000+0  00000+0 0  9990
2 43707  54.1648 178.6298 0007187 344.1579  15.8715  1.86226525 53549
GPS BIII-1  (PRN 04)    
1 43873U 18109A   26277.94203522  .00000044  00000+0  00000+0 0  9991
2 43873  55.7576  87.8578 0040526 196.2682 336.1056  2.00565529 57275
BEIDOU-3 IGSO-1 (C38)   
1 44204U 19023A   26277.90834963 -.00000215  00000+0  00000+0 0  9992
2 44204  58.8510  36.5293 0028366 224.6008 197.2437  1.00259289  8319
BEIDOU-2 G8 (C01)       
1 44231U 19027A   26277.91778985 -.00000261  00000+0  00000+0 0  9999
2 44231   1.9301  74.1922 0008900 274.8986 139.4697  1.00274093 27189
COSMOS 2534 (758)       
1 44299U 19030A   26277.06913633 -.00000014  00000+0  00000+0 0  9990
2 44299  64.3681 188.9537 0010847 276.7975 232.9843  2.13102037 57240
BEIDOU-3 IGSO-2 (C39)   
1 44337U 19035A   26277.60630830 -.00000148  00000+0  00000+0 0  9991
2 44337  55.2496 157.9007 0038644 210.4093 342.7441  1.00266321 26764
GPS BIII-2  (PRN 18)    
1 44506U 19056A   26277.41036882 -.00000064  00000+0  00000+0 0  9995
2 44506  55.5763 326.7954 0066417 200.7348 213.8224  2.00571517 52261
BEIDOU-3 M24 (C46)      
1 44542U 19061A   26266.50572373 -.00000008  00000+0  00000+0 0  9997
2 44542  54.4306 179.4090 0020747  95.6918 264.5686  1.86175926 47622
BEIDOU-3 M23 (C45)      
1 44543U 19061B   26277.98638197 -.00000026  00000+0  00000+0 0  9999
2 44543  54.3901 178.9954 0006168  10.4203  38.0722  1.86227454 47842
EUTELSAT 5 WEST B (EGN*)
1 44624U 19067A   26277.67440065 -.00000057  00000+0  00000+0 0  9990
2 44624   0.0645   6.5274 0003209 191.2526  53.3881  1.00271834 25529
BEIDOU-3 IGSO-3 (C40)   
1 44709U 19073A   26276.41522309 -.00000161  00000+0  00000+0 0  9990
2 44709  54.6205 279.7170 0046501 198.5774 161.2550  1.00257070 25546
BEIDOU-3 M22 (C44)      
1 44793U 19078A   26277.08549420 -.00000014  00000+0  00000+0 0  9992
2 44793  53.8350 295.9858 0004858  37.3879 322.6855  1.86227105 46677
BEIDOU-3 M21 (C43)      
1 44794U 19078B   26277.22513370 -.00000015  00000+0  00000+0 0  9995
2 44794  53.8080 295.9395 0002871  26.4145 333.6397  1.86227524 46681
COSMOS 2544 (759)       
1 44850U 19088A   26277.36688203  .00000040  00000+0  00000+0 0  9999
2 44850  65.6326  70.0914 0012393 244.2699 115.6159  2.13102703 53045
BEIDOU-3 M19 (C41)      
1 44864U 19090A   26277.99633700 -.00000009  00000+0  00000+0 0  9994
2 44864  56.6601  59.1686 0016026 291.2471  63.9773  1.86231069 46278
BEIDOU-3 M20 (C42)      
1 44865U 19090B   26277.43383634 -.00000006  00000+0  00000+0 0  9999
2 44865  56.6611  59.2220 0013074 306.3417 121.3271  1.86231059 46252
BEIDOU-3 G2 (C60)       
1 45344U 20017A   26277.87904998 -.00000154  00000+0  00000+0 0  9997
2 45344   2.6280  48.7208 0002677 158.4081 202.9690  1.00272011 24354
COSMOS 2545 (760)       
1 45358U 20018A   26277.09252216 -.00000007  00000+0  00000+0 0  9993
2 45358  64.2845 308.5846 0012235 238.4109 121.5302  2.13102462 50987
BEIDOU-3 G3 (C61)       
1 45807U 20040A   26277.95651125 -.00000367  00000+0  00000+0 0  9993
2 45807   2.7118  67.3464 0003116 273.5192 127.6641  1.00267724 23174
GPS BIII-3  (PRN 23)    
1 45854U 20041A   26277.50340698 -.00000078  00000+0  00000+0 0  9996
2 45854  56.7353  24.7114 0068804 206.6400 209.3520  2.00572801 46231
GALAXY 30 (WAAS/PRN 135)
1 46114U 20056C   26277.72189421  .00000000  00000+0  00000+0 0  9995
2 46114   0.0199 182.4418 0002479  20.6324 305.2176  1.00270610 22391
COSMOS 2547 (705K)      
1 46805U 20075A   26275.87541425  .00000003  00000+0  00000+0 0  9996
2 46805  64.5996 188.8847 0007945 234.0044 125.9608  2.13099739 46206
GPS BIII-4  (PRN 14)    
1 46826U 20078A   26277.98087965 -.00000029  00000+0  00000+0 0  9999
2 46826  53.9631 206.3300 0076576 208.4398 171.4946  2.00564852 43713
GPS BIII-5  (PRN 11)    
1 48859U 21054A   26277.95334958 -.00000068  00000+0  00000+0 0  9999
2 48859  55.1139 328.0412 0029098 231.8270 313.9392  2.00562229 38954
QZS-1R (QZSS/PRN 196)   
1 49336U 21096A   26277.34383275 -.00000223  00000+0  00000+0 0  9998
2 49336  37.6894  77.9713 0745364 270.2205 283.5147  1.00280092 18107
GSAT0223 (GALILEO 27)   
1 49809U 21116A   26276.49635788 -.00000080  00000+0  00000+0 0  9991
2 49809  57.1161 338.7480 0004417 229.7943 121.9438  1.70475928 30024
GSAT0224 (GALILEO 28)   
1 49810U 21116B   26277.52220609 -.00000083  00000+0  00000+0 0  9993
2 49810  57.1164 338.7188 0003656 229.0976 144.8772  1.70475970 30074
COSMOS 2557 (706K)      
1 52984U 22075A   26276.97724722 -.00000011  00000+0  00000+0 0  9998
2 52984  64.2293 310.6462 0013029 270.1115  89.8012  2.13101995 33038
COSMOS 2559 (707K)      
1 54031U 22130A   26277.26640451 -.00000011  00000+0  00000+0 0  9994
2 54031  64.2017 310.7148 0013369 190.2357 169.7990  2.13101524 31013
COSMOS 2564 (761)       
1 54377U 22161A   26277.10937955 -.00000014  00000+0  00000+0 0  9995
2 54377  64.7413 189.0999 0010384 215.0080 144.9580  2.13101970 29950
GPS BIII-6  (PRN 28)    
1 55268U 23009A   26276.89040128  .00000016  00000+0  00000+0 0  9990
2 55268  55.1308 144.2429 0005691 330.4244 207.4091  2.00563647 27428
BEIDOU-3 G4 (C62)       
1 56564U 23066A   26277.94893047 -.00000296  00000+0  00000+0 0  9997
2 56564   0.4459   3.8099 0005799 209.8572 281.6631  1.00272410 12492
NVS-01 (IRNSS-1J)       
1 56759U 23076A   26277.92136317 -.00000356  00000+0  00000+0 0  9999
2 56759   1.9147 239.1893 0006689   6.2876 229.2769  1.00265439 12212
COSMOS 2569 (703K)      
1 57517U 23114A   26277.12138207  .00000038  00000+0  00000+0 0  9993
2 57517  65.3708  68.9512 0008772 286.4094  73.5069  2.13102495 24580
BEIDOU-3 M28 (C50)      
1 58654U 23207A   26277.83863856 -.00000011  00000+0  00000+0 0  9994
2 58654  55.8554  58.6116 0000068 332.3260  27.6768  1.86229478 18880
BEIDOU-3 M26 (C48)      
1 58655U 23207B   26277.63616491 -.00000010  00000+0  00000+0 0  9993
2 58655  55.8572  58.6050 0001580 243.7206 116.2666  1.86229370 18864
GSAT0225 (GALILEO 29)   
1 59598U 24079A   26277.51397988  .00000043  00000+0  00000+0 0  9997
2 59598  55.1929  98.0237 0001753 130.2222 231.8410  1.70474029 15184
GSAT0227 (GALILEO 30)   
1 59600U 24079C   26276.52101073  .00000041  00000+0  00000+0 0  9997
2 59600  55.1859  98.0495 0004338  99.3745 260.7245  1.70474200 15215
GSAT0232 (GALILEO 32)   
1 61182U 24167A   26277.64904176 -.00000012  00000+0  00000+0 0  9991
2 61182  55.1586 218.3135 0004990 234.5156 313.4363  1.70473256 12743
GSAT0226 (GALILEO 31)   
1 61183U 24167B   26277.48567803 -.00000010  00000+0  00000+0 0  9994
2 61183  55.1575 218.3250 0001759 246.6498 292.3727  1.70473237 12718
BEIDOU-3 M25 (C47)      
1 61186U 24168B   26277.46734892 -.00000018  00000+0  00000+0 0  9998
2 61186  54.3736 298.4335 0004781 290.6976  73.9390  1.86229812 13829
BEIDOU-3 M27 (C49)      
1 61187U 24168C   26277.95023853 -.00000020  00000+0  00000+0 0  9994
2 61187  54.3686 298.3989 0001258 323.6446 139.8058  1.86229953 11303
GPS BIII-7  (PRN 01)    
1 62339U 24242A   26277.51851745 -.00000071  00000+0  00000+0 0  9994
2 62339  54.7940 329.7434 0019999   2.3700 351.8569  2.00555189 13449
QZS-6 (QZSS/PRN 200)    
1 62876U 25023A   26277.76172502 -.00000248  00000+0  00000+0 0  9998
2 62876   0.0135  24.0663 0002170 187.6424 166.4915  1.00268967  6044
COSMOS 2584 (704K)      
1 63130U 25042A   26275.60017059  .00000035  00000+0  00000+0 0  9992
2 63130  65.1526  69.1546 0006783 203.8155 156.1648  2.13103208 12339
GPS BIII-8  (PRN 21)    
1 64202U 25116A   26260.32003325 -.00000081  00000+0  00000+0 0  9991
2 64202  55.2945  27.4305 0009051 334.7424  24.4974  2.00569444  9710
COSMOS 2596 (708K)      
1 65590U 25206B   26277.41806657 -.00000011  00000+0  00000+0 0  9992
2 65590  64.5658 311.1753 0012805 301.4854 128.3714  2.13100477  8248
GSAT0233 (GALILEO 33)   
1 67160U 25302A   26276.46131672  .00000039  00000+0  00000+0 0  9995
2 67160  54.4075  99.0448 0003147 141.5900 225.4748  1.70473982  4979
GSAT0234 (GALILEO 34)   
1 67162U 25302C   26275.56730789  .00000038  00000+0  00000+0 0  9990
2 67162  54.4082  99.0694 0000468  93.1844 265.3020  1.70473970  5002
GPS BIII-9  (PRN 20)    
1 67588U 26017A   26277.38282756  .00000037  00000+0  00000+0 0  9993
2 67588  55.1669  84.3748 0020849 264.5960  95.1976  2.00568192433805
GPS BIII-10 (PRN 13)    
1 68791U 26087A   26264.30264354 -.00000012  00000+0  00000+0 0  9993
2 68791  54.9540 203.9902 0021764 102.4142  19.8323  2.00578319  2765
